[{"OBJECT_NAME":"ANSER FOLLOWER 2","OBJECT_ID":"2023-155C","EPOCH":"2026-03-05T19:43:56.461728","MEAN_MOTION":15.37516487,"ECCENTRICITY":6.896e-5,"INCLINATION":97.5578,"RA_OF_ASC_NODE":150.2317,"ARG_OF_PERICENTER":152.695,"MEAN_ANOMALY":207.4331,"EPHEMERIS_TYPE":0,"CLASSIFICATION_TYPE":"U","NORAD_CAT_ID":58018,"ELEMENT_SET_NO":999,"REV_AT_EPOCH":13302,"BSTAR":0.00060275793,"MEAN_MOTION_DOT":0.00022135,"MEAN_MOTION_DDOT":0},{"OBJECT_NAME":"GLOBAL-31","OBJECT_ID":"2025-033B","EPOCH":"2026-03-09T21:37:08.338080","MEAN_MOTION":15.38684855,"ECCENTRICITY":0.0009261,"INCLINATION":59.0009,"RA_OF_ASC_NODE":357.4522,"ARG_OF_PERICENTER":37.0893,"MEAN_ANOMALY":323.0822,"EPHEMERIS_TYPE":0,"CLASSIFICATION_TYPE":"U","NORAD_CAT_ID":63027,"ELEMENT_SET_NO":999,"REV_AT_EPOCH":5904,"BSTAR":0.00050601381,"MEAN_MOTION_DOT":0.00019268,"MEAN_MOTION_DDOT":0}]
